{
 "type": "FeatureCollection",
 "features": [],
 "title": "B1 · Autocarros novos, sem vias novas",
 "description": "Duas linhas novas nas ruas existentes: Estação – Campus da Justiça e Centro – Costa, a cada 15 min nas pontas e 30 min no resto do dia (7h–21h). 10% das viagens de carro junto às novas paragens passam para o autocarro.",
 "bus_lines": [
  {
   "id": "L1",
   "name": "Estação – Campus da Justiça",
   "via": [
    [
     -8.29424,
     41.43548
    ],
    [
     -8.2737,
     41.4478
    ],
    [
     -8.2727,
     41.449
    ]
   ]
  },
  {
   "id": "L2",
   "name": "Centro – Costa",
   "via": [
    [
     -8.29228,
     41.44193
    ],
    [
     -8.2882,
     41.4384
    ],
    [
     -8.2825,
     41.4432
    ],
    [
     -8.2797,
     41.4424
    ],
    [
     -8.2778,
     41.44255
    ]
   ]
  }
 ]
}