{
  "type": "FeatureCollection",
  "features": [
    {
      "type": "Feature",
      "properties": {
        "name": "Via PDM (Av. D. João IV – Costa), troço 1",
        "note": "Traçado reconstituído da imagem do PDM (Set 2026), erro médio ~11 m; ver amigosdaecovia.org/mapa. Termina no nó de ligação a meio da encosta (R. Domingos da Silva Gonçalves / R. Bernardino Jordão).",
        "lanes": 1, "speed_kmh": 50
      },
      "geometry": { "type": "LineString", "coordinates": [[-8.29234, 41.43452], [-8.29151, 41.43481], [-8.29106, 41.43513], [-8.29043, 41.4363], [-8.28882, 41.43698], [-8.28779, 41.43753], [-8.28685, 41.439]] }
    },
    {
      "type": "Feature",
      "properties": { "name": "Via PDM (Av. D. João IV – Costa), troço 2", "lanes": 1, "speed_kmh": 50 },
      "geometry": { "type": "LineString", "coordinates": [[-8.28685, 41.439], [-8.28548, 41.43962], [-8.28458, 41.43972], [-8.28375, 41.43993], [-8.28285, 41.44068], [-8.28225, 41.44095], [-8.28045, 41.44106], [-8.27989, 41.44121], [-8.27944, 41.44148], [-8.2792, 41.44215], [-8.27965, 41.44328], [-8.27967, 41.44391], [-8.27917, 41.44463], [-8.27824, 41.44499], [-8.27418, 41.44596]] }
    }
  ]
}
