{
 "type": "FeatureCollection",
 "description": "Rua nova do Monte do Cavalinho, abre com a urbanização do Monte do Cavalinho (hoje fechada, sem fogos): só nos cenários U: saída sudoeste da rotunda da estação, gancho (onde continua a ligação a Urgezes), topo dos lotes e subida até à R. António da Costa Guimarães junto à linha do comboio. Traçada sobre imagem de satélite (Esri 2026) e confirmada pela associação.",
 "features": [
  {
   "type": "Feature",
   "properties": {
    "action": "split",
    "street": "Rua António da Costa Guimarães",
    "note": "Junção da rua do Monte do Cavalinho com a R. António da Costa Guimarães, junto à linha do comboio, ~80 m a poente da pequena rotunda (opção A, confirmada pela associação).",
    "group": "cavalinho"
   },
   "geometry": {
    "type": "Point",
    "coordinates": [
     -8.298213,
     41.435803
    ]
   }
  },
  {
   "type": "Feature",
   "properties": {
    "action": "add",
    "name": "Monte do Cavalinho (rua nova, PDM)",
    "speed_kmh": 30,
    "note": "Rua nova do Monte do Cavalinho, já construída mas ausente do OpenStreetMap (traçada sobre imagem de satélite Esri 2026): saída sul da rotunda da estação, desce a encosta e segue para poente até à rotunda poente.",
    "group": "cavalinho"
   },
   "geometry": {
    "type": "LineString",
    "coordinates": [
     [
      -8.29281,
      41.43465
     ],
     [
      -8.292725,
      41.434201
     ],
     [
      -8.292779,
      41.433839
     ],
     [
      -8.292918,
      41.433437
     ],
     [
      -8.293058,
      41.433252
     ]
    ]
   }
  },
  {
   "type": "Feature",
   "properties": {
    "action": "add",
    "name": "Monte do Cavalinho (rua nova, PDM)",
    "speed_kmh": 30,
    "note": "Rua nova do Monte do Cavalinho, já construída mas ausente do OpenStreetMap (traçada sobre imagem de satélite Esri 2026): saída sul da rotunda da estação, desce a encosta e segue para poente até à rotunda poente.",
    "group": "cavalinho"
   },
   "geometry": {
    "type": "LineString",
    "coordinates": [
     [
      -8.293058,
      41.433252
     ],
     [
      -8.293304,
      41.433059
     ],
     [
      -8.293626,
      41.432898
     ],
     [
      -8.293884,
      41.432978
     ],
     [
      -8.293948,
      41.433236
     ],
     [
      -8.293916,
      41.433718
     ],
     [
      -8.293841,
      41.43404
     ],
     [
      -8.294023,
      41.434281
     ],
     [
      -8.294506,
      41.434378
     ],
     [
      -8.295257,
      41.434474
     ],
     [
      -8.295901,
      41.434539
     ],
     [
      -8.296545,
      41.434603
     ],
     [
      -8.297081,
      41.434699
     ],
     [
      -8.297489,
      41.434909
     ],
     [
      -8.298213,
      41.435803
     ]
    ]
   }
  }
 ]
}