{
"type": "FeatureCollection",
"source": "Imagem das vias propostas no PDM de Guimarães (2026), georreferenciada com tools/georef.py",
"features": [
{
"type": "Feature",
"properties": {
"group": "ecovia",
"corridor": "Ligação D. João IV – Parque da Cidade (sobre a Ecovia)",
"kind": "nova",
"main": true,
"road": 0,
"share_on_existing_road": 0.27,
"length_m": 754
},
"geometry": {
"type": "LineString",
"coordinates": [
[
-8.292677,
41.434596
],
[
-8.292154,
41.43462
],
[
-8.291147,
41.434848
],
[
-8.290606,
41.435301
],
[
-8.290387,
41.436013
],
[
-8.290081,
41.436544
],
[
-8.28969,
41.436822
],
[
-8.288062,
41.437143
],
[
-8.287526,
41.437453
],
[
-8.286719,
41.438618
],
[
-8.286855,
41.4388
]
]
}
},
{
"type": "Feature",
"properties": {
"group": "ecovia",
"corridor": "Ligação D. João IV – Parque da Cidade (sobre a Ecovia)",
"kind": "nova",
"main": true,
"road": 0,
"share_on_existing_road": 0.27,
"length_m": 1572
},
"geometry": {
"type": "LineString",
"coordinates": [
[
-8.286855,
41.4388
],
[
-8.286622,
41.438687
],
[
-8.28632,
41.439111
],
[
-8.285928,
41.439389
],
[
-8.285592,
41.439488
],
[
-8.283594,
41.43955
],
[
-8.28302,
41.439644
],
[
-8.281842,
41.440585
],
[
-8.279778,
41.441112
],
[
-8.279332,
41.441567
],
[
-8.279226,
41.441852
],
[
-8.279256,
41.442283
],
[
-8.279692,
41.443261
],
[
-8.279725,
41.44362
],
[
-8.279654,
41.444192
],
[
-8.279356,
41.444508
],
[
-8.278532,
41.444919
],
[
-8.274981,
41.445806
],
[
-8.27408,
41.44611
]
]
}
},
{
"type": "Feature",
"properties": {
"group": "urgezes_main",
"corridor": "Ligação Av. D. João IV – Urgezes",
"kind": "nova",
"main": true,
"road": 1,
"share_on_existing_road": 0.22,
"length_m": 715
},
"geometry": {
"type": "LineString",
"coordinates": [
[
-8.292677,
41.434596
],
[
-8.292539,
41.434485
],
[
-8.2926,
41.432981
],
[
-8.292697,
41.432911
],
[
-8.292939,
41.431626
],
[
-8.293315,
41.430559
],
[
-8.293329,
41.430201
],
[
-8.29348,
41.429989
],
[
-8.293498,
41.42956
],
[
-8.29388,
41.428313
]
]
}
},
{
"type": "Feature",
"properties": {
"group": "urgezes_main",
"corridor": "Ligação Av. D. João IV – Urgezes",
"kind": "nova",
"main": true,
"road": 1,
"share_on_existing_road": 0.22,
"length_m": 399
},
"geometry": {
"type": "LineString",
"coordinates": [
[
-8.29388,
41.428313
],
[
-8.29406,
41.427385
],
[
-8.294213,
41.427138
],
[
-8.294233,
41.426637
],
[
-8.294434,
41.426354
],
[
-8.294468,
41.425531
],
[
-8.294282,
41.425419
],
[
-8.294258,
41.424845
]
]
}
},
{
"type": "Feature",
"properties": {
"group": "urgezes_main",
"corridor": "Ligação Av. D. João IV – Urgezes",
"kind": "nova",
"main": true,
"road": 1,
"share_on_existing_road": 0.22,
"length_m": 189
},
"geometry": {
"type": "LineString",
"coordinates": [
[
-8.294258,
41.424845
],
[
-8.29519,
41.424113
],
[
-8.295293,
41.4239
],
[
-8.295265,
41.423434
]
]
}
},
{
"type": "Feature",
"properties": {
"group": "circular",
"corridor": "Ligação Parque da Cidade – Circular urbana",
"kind": "nova",
"main": true,
"road": 2,
"share_on_existing_road": 0.37,
"length_m": 794
},
"geometry": {
"type": "LineString",
"coordinates": [
[
-8.27139,
41.44843
],
[
-8.270367,
41.448317
],
[
-8.270308,
41.448602
],
[
-8.270485,
41.448929
],
[
-8.270457,
41.44961
],
[
-8.268504,
41.450927
],
[
-8.268449,
41.451105
],
[
-8.270389,
41.452476
],
[
-8.270912,
41.452488
],
[
-8.271143,
41.452637
],
[
-8.271523,
41.452646
]
]
}
},
{
"type": "Feature",
"properties": {
"group": "circular",
"corridor": "Ligação Parque da Cidade – Circular urbana",
"kind": "nova",
"main": true,
"road": 2,
"share_on_existing_road": 0.37,
"length_m": 675
},
"geometry": {
"type": "LineString",
"coordinates": [
[
-8.271523,
41.452646
],
[
-8.271094,
41.452672
],
[
-8.271186,
41.455112
],
[
-8.271358,
41.455546
],
[
-8.271294,
41.455975
],
[
-8.27392,
41.45453
]
]
}
},
{
"type": "Feature",
"properties": {
"group": "urgezes",
"corridor": "Ligações Centro cidade – Urgezes",
"kind": "nova",
"main": true,
"road": 3,
"share_on_existing_road": 0.07,
"length_m": 269
},
"geometry": {
"type": "LineString",
"coordinates": [
[
-8.291355,
41.42969
],
[
-8.292534,
41.428713
],
[
-8.293499,
41.428341
],
[
-8.29388,
41.428313
]
]
}
},
{
"type": "Feature",
"properties": {
"group": "urgezes",
"corridor": "Ligações Centro cidade – Urgezes",
"kind": "nova",
"main": true,
"road": 4,
"share_on_existing_road": 0.26,
"length_m": 312
},
"geometry": {
"type": "LineString",
"coordinates": [
[
-8.29388,
41.428313
],
[
-8.293982,
41.428137
],
[
-8.294267,
41.428143
],
[
-8.294658,
41.427865
],
[
-8.294887,
41.426903
],
[
-8.295034,
41.426798
],
[
-8.295053,
41.426333
],
[
-8.294926,
41.425935
]
]
}
},
{
"type": "Feature",
"properties": {
"group": "urgezes",
"corridor": "Ligações Centro cidade – Urgezes",
"kind": "nova",
"main": true,
"road": 4,
"share_on_existing_road": 0.26,
"length_m": 140
},
"geometry": {
"type": "LineString",
"coordinates": [
[
-8.294926,
41.425935
],
[
-8.296149,
41.425067
]
]
}
},
{
"type": "Feature",
"properties": {
"group": "urgezes",
"corridor": "Ligações Centro cidade – Urgezes",
"kind": "nova",
"main": true,
"road": 5,
"share_on_existing_road": 0.32,
"length_m": 214
},
"geometry": {
"type": "LineString",
"coordinates": [
[
-8.298794,
41.436063
],
[
-8.299123,
41.436142
],
[
-8.299888,
41.436016
],
[
-8.300807,
41.435607
],
[
-8.301053,
41.435398
]
]
}
},
{
"type": "Feature",
"properties": {
"group": "urgezes",
"corridor": "Ligações Centro cidade – Urgezes",
"kind": "nova",
"main": true,
"road": 5,
"share_on_existing_road": 0.32,
"length_m": 791
},
"geometry": {
"type": "LineString",
"coordinates": [
[
-8.301053,
41.435398
],
[
-8.30083,
41.435034
],
[
-8.301026,
41.434895
],
[
-8.301233,
41.43447
],
[
-8.301259,
41.433825
],
[
-8.301127,
41.433571
],
[
-8.301229,
41.433394
],
[
-8.301173,
41.432425
],
[
-8.30137,
41.431067
],
[
-8.301477,
41.428416
]
]
}
},
{
"type": "Feature",
"properties": {
"group": "urgezes",
"corridor": "Ligações Centro cidade – Urgezes",
"kind": "existente",
"main": true,
"road": 6,
"share_on_existing_road": 0.61,
"length_m": 254
},
"geometry": {
"type": "LineString",
"coordinates": [
[
-8.301477,
41.428416
],
[
-8.301481,
41.428309
],
[
-8.301721,
41.428243
],
[
-8.302843,
41.427515
],
[
-8.303286,
41.427131
],
[
-8.303389,
41.426954
],
[
-8.303203,
41.426842
]
]
}
},
{
"type": "Feature",
"properties": {
"group": "urgezes",
"corridor": "Ligações Centro cidade – Urgezes",
"kind": "existente",
"main": true,
"road": 6,
"share_on_existing_road": 0.61,
"length_m": 226
},
"geometry": {
"type": "LineString",
"coordinates": [
[
-8.303203,
41.426842
],
[
-8.303439,
41.426884
],
[
-8.303588,
41.426708
],
[
-8.30357,
41.42599
],
[
-8.303164,
41.425443
],
[
-8.303458,
41.425235
]
]
}
},
{
"type": "Feature",
"properties": {
"group": "urgezes",
"corridor": "Ligações Centro cidade – Urgezes",
"kind": "existente",
"main": true,
"road": 6,
"share_on_existing_road": 0.61,
"length_m": 225
},
"geometry": {
"type": "LineString",
"coordinates": [
[
-8.303458,
41.425235
],
[
-8.303072,
41.42537
],
[
-8.302891,
41.42515
],
[
-8.302195,
41.42474
],
[
-8.302132,
41.42395
]
]
}
},
{
"type": "Feature",
"properties": {
"group": "urgezes",
"corridor": "Ligações Centro cidade – Urgezes",
"kind": "existente",
"main": true,
"road": 7,
"share_on_existing_road": 0.75,
"length_m": 207
},
"geometry": {
"type": "LineString",
"coordinates": [
[
-8.301477,
41.428416
],
[
-8.301434,
41.428308
],
[
-8.300057,
41.428276
],
[
-8.299446,
41.428119
],
[
-8.299249,
41.428293
]
]
}
},
{
"type": "Feature",
"properties": {
"group": "outras",
"corridor": "Outras vias propostas no PDM",
"kind": "nova",
"main": true,
"road": 8,
"share_on_existing_road": 0.21,
"length_m": 261
},
"geometry": {
"type": "LineString",
"coordinates": [
[
-8.318262,
41.428013
],
[
-8.317937,
41.427826
],
[
-8.317747,
41.427822
],
[
-8.317016,
41.427124
],
[
-8.316046,
41.42642
]
]
}
},
{
"type": "Feature",
"properties": {
"group": "outras",
"corridor": "Outras vias propostas no PDM",
"kind": "nova",
"main": true,
"road": 8,
"share_on_existing_road": 0.21,
"length_m": 227
},
"geometry": {
"type": "LineString",
"coordinates": [
[
-8.316046,
41.42642
],
[
-8.315487,
41.426156
],
[
-8.314659,
41.425492
],
[
-8.314206,
41.424944
]
]
}
},
{
"type": "Feature",
"properties": {
"group": "outras",
"corridor": "Outras vias propostas no PDM",
"kind": "nova",
"main": true,
"road": 8,
"share_on_existing_road": 0.21,
"length_m": 434
},
"geometry": {
"type": "LineString",
"coordinates": [
[
-8.314206,
41.424944
],
[
-8.312974,
41.424844
],
[
-8.312641,
41.424872
],
[
-8.312494,
41.424976
],
[
-8.310501,
41.424931
],
[
-8.310354,
41.425035
],
[
-8.309304,
41.425154
],
[
-8.309205,
41.425259
]
]
}
},
{
"type": "Feature",
"properties": {
"group": "outras",
"corridor": "Outras vias propostas no PDM",
"kind": "nova",
"main": true,
"road": 8,
"share_on_existing_road": 0.21,
"length_m": 244
},
"geometry": {
"type": "LineString",
"coordinates": [
[
-8.309205,
41.425259
],
[
-8.30854,
41.425244
],
[
-8.308355,
41.425132
],
[
-8.307929,
41.425087
],
[
-8.307135,
41.424746
],
[
-8.306626,
41.424411
]
]
}
},
{
"type": "Feature",
"properties": {
"group": "outras",
"corridor": "Outras vias propostas no PDM",
"kind": "nova",
"main": true,
"road": 8,
"share_on_existing_road": 0.21,
"length_m": 294
},
"geometry": {
"type": "LineString",
"coordinates": [
[
-8.306626,
41.424411
],
[
-8.305751,
41.423746
],
[
-8.30459,
41.423074
],
[
-8.304075,
41.422883
],
[
-8.303836,
41.422913
]
]
}
},
{
"type": "Feature",
"properties": {
"group": "outras",
"corridor": "Outras vias propostas no PDM",
"kind": "nova",
"main": true,
"road": 8,
"share_on_existing_road": 0.21,
"length_m": 168
},
"geometry": {
"type": "LineString",
"coordinates": [
[
-8.303836,
41.422913
],
[
-8.303559,
41.422728
],
[
-8.303225,
41.422756
],
[
-8.302519,
41.422596
],
[
-8.30195,
41.422583
]
]
}
},
{
"type": "Feature",
"properties": {
"group": "outras",
"corridor": "Outras vias propostas no PDM",
"kind": "nova",
"main": true,
"road": 9,
"share_on_existing_road": 0.07,
"length_m": 481
},
"geometry": {
"type": "LineString",
"coordinates": [
[
-8.307399,
41.431169
],
[
-8.307378,
41.430523
],
[
-8.307581,
41.429022
],
[
-8.307444,
41.428876
],
[
-8.307466,
41.428339
],
[
-8.307024,
41.427504
],
[
-8.306905,
41.426927
]
]
}
},
{
"type": "Feature",
"properties": {
"group": "outras",
"corridor": "Outras vias propostas no PDM",
"kind": "nova",
"main": true,
"road": 9,
"share_on_existing_road": 0.07,
"length_m": 288
},
"geometry": {
"type": "LineString",
"coordinates": [
[
-8.306905,
41.426927
],
[
-8.306866,
41.426711
],
[
-8.306728,
41.426601
],
[
-8.306643,
41.425165
],
[
-8.306472,
41.424695
],
[
-8.306626,
41.424411
]
]
}
},
{
"type": "Feature",
"properties": {
"group": "outras",
"corridor": "Outras vias propostas no PDM",
"kind": "nova",
"main": true,
"road": 10,
"share_on_existing_road": 0.15,
"length_m": 136
},
"geometry": {
"type": "LineString",
"coordinates": [
[
-8.304355,
41.454833
],
[
-8.304209,
41.454938
],
[
-8.302782,
41.454977
]
]
}
},
{
"type": "Feature",
"properties": {
"group": "outras",
"corridor": "Outras vias propostas no PDM",
"kind": "nova",
"main": true,
"road": 10,
"share_on_existing_road": 0.15,
"length_m": 262
},
"geometry": {
"type": "LineString",
"coordinates": [
[
-8.302782,
41.454977
],
[
-8.302692,
41.457197
],
[
-8.302546,
41.457302
]
]
}
},
{
"type": "Feature",
"properties": {
"group": "outras",
"corridor": "Outras vias propostas no PDM",
"kind": "nova",
"main": true,
"road": 10,
"share_on_existing_road": 0.15,
"length_m": 77
},
"geometry": {
"type": "LineString",
"coordinates": [
[
-8.302546,
41.457302
],
[
-8.30235,
41.45744
],
[
-8.301829,
41.457393
],
[
-8.301732,
41.457462
]
]
}
},
{
"type": "Feature",
"properties": {
"group": "outras",
"corridor": "Outras vias propostas no PDM",
"kind": "existente",
"main": true,
"road": 11,
"share_on_existing_road": 0.66,
"length_m": 317
},
"geometry": {
"type": "LineString",
"coordinates": [
[
-8.29996,
41.448387
],
[
-8.299764,
41.448526
],
[
-8.298849,
41.448827
],
[
-8.298736,
41.449291
],
[
-8.298274,
41.450141
],
[
-8.298501,
41.450397
],
[
-8.298351,
41.450573
]
]
}
},
{
"type": "Feature",
"properties": {
"group": "outras",
"corridor": "Outras vias propostas no PDM",
"kind": "existente",
"main": true,
"road": 11,
"share_on_existing_road": 0.66,
"length_m": 269
},
"geometry": {
"type": "LineString",
"coordinates": [
[
-8.298351,
41.450573
],
[
-8.29859,
41.450542
],
[
-8.298993,
41.451161
],
[
-8.298017,
41.451784
],
[
-8.297865,
41.452031
],
[
-8.297439,
41.451986
]
]
}
},
{
"type": "Feature",
"properties": {
"group": "outras",
"corridor": "Outras vias propostas no PDM",
"kind": "existente",
"main": true,
"road": 11,
"share_on_existing_road": 0.66,
"length_m": 438
},
"geometry": {
"type": "LineString",
"coordinates": [
[
-8.297439,
41.451986
],
[
-8.297815,
41.452102
],
[
-8.29781,
41.452209
],
[
-8.297124,
41.452731
],
[
-8.295738,
41.452951
],
[
-8.295544,
41.453054
],
[
-8.295069,
41.453043
],
[
-8.294922,
41.453147
],
[
-8.294638,
41.45314
],
[
-8.294148,
41.453488
],
[
-8.293825,
41.453265
]
]
}
},
{
"type": "Feature",
"properties": {
"group": "outras",
"corridor": "Outras vias propostas no PDM",
"kind": "existente",
"main": true,
"road": 11,
"share_on_existing_road": 0.66,
"length_m": 470
},
"geometry": {
"type": "LineString",
"coordinates": [
[
-8.293825,
41.453265
],
[
-8.294051,
41.453557
],
[
-8.292972,
41.454393
],
[
-8.29244,
41.454632
],
[
-8.291053,
41.454851
],
[
-8.290173,
41.455476
],
[
-8.289933,
41.455542
],
[
-8.289928,
41.45565
]
]
}
},
{
"type": "Feature",
"properties": {
"group": "outras",
"corridor": "Outras vias propostas no PDM",
"kind": "nova",
"main": true,
"road": 12,
"share_on_existing_road": 0.09,
"length_m": 212
},
"geometry": {
"type": "LineString",
"coordinates": [
[
-8.283516,
41.44385
],
[
-8.28305,
41.442442
],
[
-8.283116,
41.441977
]
]
}
},
{
"type": "Feature",
"properties": {
"group": "outras",
"corridor": "Outras vias propostas no PDM",
"kind": "nova",
"main": true,
"road": 12,
"share_on_existing_road": 0.09,
"length_m": 146
},
"geometry": {
"type": "LineString",
"coordinates": [
[
-8.283116,
41.441977
],
[
-8.284103,
41.441068
],
[
-8.284109,
41.440924
]
]
}
}
]
}